{
  "norad_id": 64554,
  "name": "TRANSPORTER-14 OBJECT AC",
  "history": [
    {
      "epoch": "2026-03-28T19:42:50.941152Z",
      "apogee_km": 483.91248562957935,
      "perigee_km": 481.48745419419447,
      "latitude_deg": 6.883215760928243e-05,
      "longitude_deg": 82.77636896439083,
      "height_km": 486.9836233844752,
      "semi_major_axis_km": 6860.836969911887,
      "eccentricity": 0.00017673,
      "inclination_deg": 97.4535,
      "raan_deg": 204.725,
      "arg_perigee_deg": 192.5711,
      "mean_anomaly_deg": 167.5485,
      "mean_motion_rev_day": 15.27696602
    }
  ]
}